GLOBALSTAR M075 [+]     
1 37192U 10054E   24059.60367271 -.00000079  00000+0  13864-3 0  9995
2 37192  51.9934 186.5412 0000705 100.7013 272.3326 12.62271058616075
GLOBALSTAR M073 [+]     
1 37193U 10054F   24059.36594221 -.00000084  00000+0  10992-3 0  9991
2 37193  52.0053 100.7194 0000494 105.1929 268.8578 12.62262188617877
GLOBALSTAR M083 [+]     
1 37739U 11033A   24059.22072872 -.00000109  00000+0 -28857-4 0  9992
2 37739  51.9870  50.5410 0000151 129.9862 243.4944 12.62265953586875
GLOBALSTAR M088 [+]     
1 37740U 11033B   24059.46653906 -.00000074  00000+0  16745-3 0  9995
2 37740  51.9751 315.6866 0000502  57.2741 114.2987 12.62265296582445
GLOBALSTAR M091 [+]     
1 37741U 11033C   24059.32135624 -.00000090  00000+0  74534-4 0  9992
2 37741  51.9988 278.8344 0000555  65.0121 106.4196 12.62271848583217
GLOBALSTAR M089 [+]     
1 37744U 11033F   24059.51206491 -.00000095  00000+0  49856-4 0  9991
2 37744  51.9917 186.5220 0001033  90.4541 347.0529 12.62254643584746
